{
  "type": "FeatureCollection",
  "features": [
    {
      "type": "Feature",
      "properties": {
        "norad_id": 54741,
        "name": "GALAXY 35 (G-35)",
        "group": "intelsat",
        "lat": -0.021934633032326248,
        "lon": -7.208178496527413,
        "alt_km": 35784.34724619197,
        "timestamp": "2025-12-22T23:36:20.368055+00:00",
        "meta_object_name": "GALAXY 35 (G-35)",
        "meta_object_id": "2022-170A",
        "meta_epoch": "2025-12-22T10:03:11.694240",
        "meta_mean_motion": 1.00271748,
        "meta_eccentricity": 0.00021945,
        "meta_inclination": 0.0194,
        "meta_ra_of_asc_node": 82.469,
        "meta_arg_of_pericenter": 191.3059,
        "meta_mean_anomaly": 235.1564,
        "meta_ephemeris_type": 0,
        "meta_classification_type": "U",
        "meta_norad_cat_id": 54741,
        "meta_element_set_no": 999,
        "meta_rev_at_epoch": 1112,
        "meta_bstar": 0,
        "meta_mean_motion_dot": -1.41e-06,
        "meta_mean_motion_ddot": 0,
        "tle_line1": "1 54741U 22170A   25356.41888535 -.00000141  00000+0  00000+0 0  9991",
        "tle_line2": "2 54741   0.0194  82.4690 0002194 191.3059 235.1564  1.00271748 11121"
      },
      "geometry": {
        "type": "Point",
        "coordinates": [
          -7.208178496527413,
          -0.021934633032326248
        ]
      }
    },
    {
      "type": "Feature",
      "properties": {
        "norad_id": 54742,
        "name": "GALAXY 36 (G-36)",
        "group": "intelsat",
        "lat": -0.01947843412437827,
        "lon": -3.15157388393355,
        "alt_km": 35785.16886964453,
        "timestamp": "2025-12-22T23:36:20.368067+00:00",
        "meta_object_name": "GALAXY 36 (G-36)",
        "meta_object_id": "2022-170B",
        "meta_epoch": "2025-12-22T10:05:07.974816",
        "meta_mean_motion": 1.00268671,
        "meta_eccentricity": 4.471e-05,
        "meta_inclination": 0.0157,
        "meta_ra_of_asc_node": 42.8223,
        "meta_arg_of_pericenter": 300.2529,
        "meta_mean_anomaly": 170.4284,
        "meta_ephemeris_type": 0,
        "meta_classification_type": "U",
        "meta_norad_cat_id": 54742,
        "meta_element_set_no": 999,
        "meta_rev_at_epoch": 1100,
        "meta_bstar": 0,
        "meta_mean_motion_dot": 0,
        "meta_mean_motion_ddot": 0,
        "tle_line1": "1 54742U 22170B   25356.42023119  .00000000  00000+0  00000+0 0  9995",
        "tle_line2": "2 54742   0.0157  42.8223 0000447 300.2529 170.4284  1.00268671 11003"
      },
      "geometry": {
        "type": "Point",
        "coordinates": [
          -3.15157388393355,
          -0.01947843412437827
        ]
      }
    },
    {
      "type": "Feature",
      "properties": {
        "norad_id": 57493,
        "name": "GALAXY 37 (G-37)",
        "group": "intelsat",
        "lat": -0.02788481626770173,
        "lon": -41.13477095101924,
        "alt_km": 35780.147739747124,
        "timestamp": "2025-12-22T23:36:20.368078+00:00",
        "meta_object_name": "GALAXY 37 (G-37)",
        "meta_object_id": "2023-112A",
        "meta_epoch": "2025-12-22T11:38:10.684896",
        "meta_mean_motion": 1.00271284,
        "meta_eccentricity": 0.00019725,
        "meta_inclination": 0.0081,
        "meta_ra_of_asc_node": 33.5643,
        "meta_arg_of_pericenter": 241.6184,
        "meta_mean_anomaly": 223.6426,
        "meta_ephemeris_type": 0,
        "meta_classification_type": "U",
        "meta_norad_cat_id": 57493,
        "meta_element_set_no": 999,
        "meta_rev_at_epoch": 877,
        "meta_bstar": 0,
        "meta_mean_motion_dot": 7e-07,
        "meta_mean_motion_ddot": 0,
        "tle_line1": "1 57493U 23112A   25356.48484589  .00000070  00000+0  00000+0 0  9993",
        "tle_line2": "2 57493   0.0081  33.5643 0001972 241.6184 223.6426  1.00271284  8770"
      },
      "geometry": {
        "type": "Point",
        "coordinates": [
          -41.13477095101924,
          -0.02788481626770173
        ]
      }
    }
  ]
}